[{"OBJECT_NAME":"STARLINK-32021","OBJECT_ID":"2024-120P","EPOCH":"2026-03-09T22:05:41.446176","MEAN_MOTION":15.30218512,"ECCENTRICITY":9.436e-5,"INCLINATION":53.1606,"RA_OF_ASC_NODE":308.7497,"ARG_OF_PERICENTER":94.5049,"MEAN_ANOMALY":265.6059,"EPHEMERIS_TYPE":0,"CLASSIFICATION_TYPE":"U","NORAD_CAT_ID":60148,"ELEMENT_SET_NO":999,"REV_AT_EPOCH":9663,"BSTAR":-0.00025867044,"MEAN_MOTION_DOT":-8.016e-5,"MEAN_MOTION_DDOT":0},{"OBJECT_NAME":"FLOCK 4G-13","OBJECT_ID":"2025-009N","EPOCH":"2026-03-09T16:57:12.071808","MEAN_MOTION":15.32770015,"ECCENTRICITY":0.0003801,"INCLINATION":97.4019,"RA_OF_ASC_NODE":151.0918,"ARG_OF_PERICENTER":292.7207,"MEAN_ANOMALY":67.3633,"EPHEMERIS_TYPE":0,"CLASSIFICATION_TYPE":"U","NORAD_CAT_ID":62621,"ELEMENT_SET_NO":999,"REV_AT_EPOCH":6370,"BSTAR":0.0016695386,"MEAN_MOTION_DOT":0.00053076,"MEAN_MOTION_DDOT":0}]
